{"type": "FeatureCollection", "features": [ {"type": "Feature", "properties": {"norad_id": 35835, "name": "COSMOS 2251 DEB", "group": "cosmos-2251-debris", "lat": 63.11446920063002, "lon": 32.70809661425175, "alt_km": 926.5813961061322, "timestamp": "2025-12-25T11:37:44.836178+00:00", "meta": {"OBJECT_NAME": "COSMOS 2251 DEB", "OBJECT_ID": "1993-036ATH", "EPOCH": "2025-12-24T22:57:37.404288", "MEAN_MOTION": 13.82930513, "ECCENTRICITY": 0.0291406, "INCLINATION": 74.0631, "RA_OF_ASC_NODE": 247.8975, "ARG_OF_PERICENTER": 26.7225, "MEAN_ANOMALY": 334.8581, "EPHEMERIS_TYPE": 0, "CLASSIFICATION_TYPE": "U", "NORAD_CAT_ID": 35835, "ELEMENT_SET_NO": 999, "REV_AT_EPOCH": 61868, "BSTAR": 0.001431, "MEAN_MOTION_DOT": 2.142e-05, "MEAN_MOTION_DDOT": 0}, "tle": {"line1": "1 35835U 93036ATH 25358.95668292  .00002142  00000+0  14310-2 0  9994", "line2": "2 35835  74.0631 247.8975 0291406  26.7225 334.8581 13.82930513618681"}}, "geometry": {"type": "Point", "coordinates": [32.70809661425175, 63.11446920063002]}}, {"type": "Feature", "properties": {"norad_id": 35836, "name": "COSMOS 2251 DEB", "group": "cosmos-2251-debris", "lat": 47.092296636999095, "lon": 166.1188106664957, "alt_km": 667.5607533020175, "timestamp": "2025-12-25T11:37:44.836188+00:00", "meta": {"OBJECT_NAME": "COSMOS 2251 DEB", "OBJECT_ID": "1993-036ATJ", "EPOCH": "2025-12-23T20:14:10.891104", "MEAN_MOTION": 14.71217504, "ECCENTRICITY": 0.0023444, "INCLINATION": 74.0324, "RA_OF_ASC_NODE": 151.3656, "ARG_OF_PERICENTER": 209.0088, "MEAN_ANOMALY": 150.9782, "EPHEMERIS_TYPE": 0, "CLASSIFICATION_TYPE": "U", "NORAD_CAT_ID": 35836, "ELEMENT_SET_NO": 999, "REV_AT_EPOCH": 63683, "BSTAR": 0.0022605, "MEAN_MOTION_DOT": 0.00013996, "MEAN_MOTION_DDOT": 0}, "tle": {"line1": "1 35836U 93036ATJ 25357.84318161  .00013996  00000+0  22605-2 0  9994", "line2": "2 35836  74.0324 151.3656 0023444 209.0088 150.9782 14.71217504636838"}}, "geometry": {"type": "Point", "coordinates": [166.1188106664957, 47.092296636999095]}}, {"type": "Feature", "properties": {"norad_id": 35837, "name": "COSMOS 2251 DEB", "group": "cosmos-2251-debris", "lat": 71.56310596913673, "lon": -112.35955021235694, "alt_km": 728.040291365337, "timestamp": "2025-12-25T11:37:44.836198+00:00", "meta": {"OBJECT_NAME": "COSMOS 2251 DEB", "OBJECT_ID": "1993-036ATK", "EPOCH": "2025-12-23T20:48:22.053024", "MEAN_MOTION": 13.63560689, "ECCENTRICITY": 0.0421934, "INCLINATION": 73.722, "RA_OF_ASC_NODE": 189.1152, "ARG_OF_PERICENTER": 108.1648, "MEAN_ANOMALY": 317.2477, "EPHEMERIS_TYPE": 0, "CLASSIFICATION_TYPE": "U", "NORAD_CAT_ID": 35837, "ELEMENT_SET_NO": 999, "REV_AT_EPOCH": 58128, "BSTAR": 0.0035572, "MEAN_MOTION_DOT": 5.124e-05, "MEAN_MOTION_DDOT": 0}, "tle": {"line1": "1 35837U 93036ATK 25357.86692191  .00005124  00000+0  35572-2 0  9996", "line2": "2 35837  73.7220 189.1152 0421934 108.1648 317.2477 13.63560689581289"}}, "geometry": {"type": "Point", "coordinates": [-112.35955021235694, 71.56310596913673]}}, {"type": "Feature", "properties": {"norad_id": 35839, "name": "COSMOS 2251 DEB", "group": "cosmos-2251-debris", "lat": -28.21534109555227, "lon": -73.18557674771384, "alt_km": 390.4398377310217, "timestamp": "2025-12-25T11:37:44.836208+00:00", "meta": {"OBJECT_NAME": "COSMOS 2251 DEB", "OBJECT_ID": "1993-036ATM", "EPOCH": "2025-12-22T13:00:04.597632", "MEAN_MOTION": 15.59480867, "ECCENTRICITY": 0.0007508, "INCLINATION": 74.2046, "RA_OF_ASC_NODE": 302.0435, "ARG_OF_PERICENTER": 136.7735, "MEAN_ANOMALY": 223.4075, "EPHEMERIS_TYPE": 0, "CLASSIFICATION_TYPE": "U", "NORAD_CAT_ID": 35839, "ELEMENT_SET_NO": 999, "REV_AT_EPOCH": 88720, "BSTAR": 0.0064439432, "MEAN_MOTION_DOT": 0.0054719, "MEAN_MOTION_DDOT": 0}, "tle": {"line1": "1 35839U 93036ATM 25356.54171988  .00547190  00000+0  64439-2 0  9996", "line2": "2 35839  74.2046 302.0435 0007508 136.7735 223.4075 15.59480867887203"}}, "geometry": {"type": "Point", "coordinates": [-73.18557674771384, -28.21534109555227]}}, {"type": "Feature", "properties": {"norad_id": 35840, "name": "COSMOS 2251 DEB", "group": "cosmos-2251-debris", "lat": 52.65762569804214, "lon": 156.75005188506043, "alt_km": 683.213110298313, "timestamp": "2025-12-25T11:37:44.836218+00:00", "meta": {"OBJECT_NAME": "COSMOS 2251 DEB", "OBJECT_ID": "1993-036ATN", "EPOCH": "2025-12-24T15:20:22.552224", "MEAN_MOTION": 14.37934455, "ECCENTRICITY": 0.01160056, "INCLINATION": 73.9312, "RA_OF_ASC_NODE": 136.1205, "ARG_OF_PERICENTER": 35.3241, "MEAN_ANOMALY": 325.5527, "EPHEMERIS_TYPE": 0, "CLASSIFICATION_TYPE": "U", "NORAD_CAT_ID": 35840, "ELEMENT_SET_NO": 999, "REV_AT_EPOCH": 85462, "BSTAR": 0.001538727, "MEAN_MOTION_DOT": 5e-05, "MEAN_MOTION_DDOT": 0}, "tle": {"line1": "1 35840U 93036ATN 25358.63914991  .00005000  00000+0  15387-2 0  9996", "line2": "2 35840  73.9312 136.1205 0116005  35.3241 325.5527 14.37934455854625"}}, "geometry": {"type": "Point", "coordinates": [156.75005188506043, 52.65762569804214]}}, {"type": "Feature", "properties": {"norad_id": 35883, "name": "COSMOS 2251 DEB", "group": "cosmos-2251-debris", "lat": -71.35240401612263, "lon": -12.042914537246041, "alt_km": 747.7157944627425, "timestamp": "2025-12-25T11:37:44.836228+00:00", "meta": {"OBJECT_NAME": "COSMOS 2251 DEB", "OBJECT_ID": "1993-036ATW", "EPOCH": "2025-12-23T21:05:13.714080", "MEAN_MOTION": 14.50630693, "ECCENTRICITY": 0.0083107, "INCLINATION": 74.0242, "RA_OF_ASC_NODE": 49.0707, "ARG_OF_PERICENTER": 175.772, "MEAN_ANOMALY": 359.9485, "EPHEMERIS_TYPE": 0, "CLASSIFICATION_TYPE": "U", "NORAD_CAT_ID": 35883, "ELEMENT_SET_NO": 999, "REV_AT_EPOCH": 62547, "BSTAR": 0.00025575, "MEAN_MOTION_DOT": 1.02e-05, "MEAN_MOTION_DDOT": 0}, "tle": {"line1": "1 35883U 93036ATW 25357.87863095  .00001020  00000+0  25575-3 0  9995", "line2": "2 35883  74.0242  49.0707 0083107 175.7720 359.9485 14.50630693625477"}}, "geometry": {"type": "Point", "coordinates": [-12.042914537246041, -71.35240401612263]}}, {"type": "Feature", "properties": {"norad_id": 35884, "name": "COSMOS 2251 DEB", "group": "cosmos-2251-debris", "lat": -59.22304348613459, "lon": -75.88567591187835, "alt_km": 885.8905724454999, "timestamp": "2025-12-25T11:37:44.836238+00:00", "meta": {"OBJECT_NAME": "COSMOS 2251 DEB", "OBJECT_ID": "1993-036ATX", "EPOCH": "2025-12-23T04:21:24.693984", "MEAN_MOTION": 14.25720371, "ECCENTRICITY": 0.01085787, "INCLINATION": 73.9917, "RA_OF_ASC_NODE": 317.1007, "ARG_OF_PERICENTER": 101.1734, "MEAN_ANOMALY": 260.1642, "EPHEMERIS_TYPE": 0, "CLASSIFICATION_TYPE": "U", "NORAD_CAT_ID": 35884, "ELEMENT_SET_NO": 999, "REV_AT_EPOCH": 22506, "BSTAR": 0.0013065465, "MEAN_MOTION_DOT": 3.275e-05, "MEAN_MOTION_DDOT": 0}, "tle": {"line1": "1 35884U 93036ATX 25357.18153581  .00003275  00000+0  13065-2 0  9996", "line2": "2 35884  73.9917 317.1007 0108578 101.1734 260.1642 14.25720371225069"}}, "geometry": {"type": "Point", "coordinates": [-75.88567591187835, -59.22304348613459]}}, {"type": "Feature", "properties": {"norad_id": 35885, "name": "COSMOS 2251 DEB", "group": "cosmos-2251-debris", "lat": -74.0133354272483, "lon": 179.79434691373325, "alt_km": 770.4620350519681, "timestamp": "2025-12-25T11:37:44.836248+00:00", "meta": {"OBJECT_NAME": "COSMOS 2251 DEB", "OBJECT_ID": "1993-036ATY", "EPOCH": "2025-12-24T00:58:25.624704", "MEAN_MOTION": 14.37540566, "ECCENTRICITY": 0.00237828, "INCLINATION": 74.0286, "RA_OF_ASC_NODE": 273.9879, "ARG_OF_PERICENTER": 352.1059, "MEAN_ANOMALY": 7.9717, "EPHEMERIS_TYPE": 0, "CLASSIFICATION_TYPE": "U", "NORAD_CAT_ID": 35885, "ELEMENT_SET_NO": 999, "REV_AT_EPOCH": 65178, "BSTAR": 0.00028459173, "MEAN_MOTION_DOT": 8.29e-06, "MEAN_MOTION_DDOT": 0}, "tle": {"line1": "1 35885U 93036ATY 25358.04057436  .00000829  00000+0  28459-3 0  9991", "line2": "2 35885  74.0286 273.9879 0023782 352.1059   7.9717 14.37540566651789"}}, "geometry": {"type": "Point", "coordinates": [179.79434691373325, -74.0133354272483]}}, {"type": "Feature", "properties": {"norad_id": 35888, "name": "COSMOS 2251 DEB", "group": "cosmos-2251-debris", "lat": 72.38589449872961, "lon": 88.01820828385172, "alt_km": 657.2371347127228, "timestamp": "2025-12-25T11:37:44.836258+00:00", "meta": {"OBJECT_NAME": "COSMOS 2251 DEB", "OBJECT_ID": "1993-036AUB", "EPOCH": "2025-12-24T15:25:47.112960", "MEAN_MOTION": 14.58358709, "ECCENTRICITY": 0.00479961, "INCLINATION": 74.034, "RA_OF_ASC_NODE": 334.0069, "ARG_OF_PERICENTER": 102.564, "MEAN_ANOMALY": 258.0899, "EPHEMERIS_TYPE": 0, "CLASSIFICATION_TYPE": "U", "NORAD_CAT_ID": 35888, "ELEMENT_SET_NO": 999, "REV_AT_EPOCH": 86447, "BSTAR": 0.00043220593, "MEAN_MOTION_DOT": 2.004e-05, "MEAN_MOTION_DDOT": 0}, "tle": {"line1": "1 35888U 93036AUB 25358.64290640  .00002004  00000+0  43221-3 0  9997", "line2": "2 35888  74.0340 334.0069 0047996 102.5640 258.0899 14.58358709864470"}}, "geometry": {"type": "Point", "coordinates": [88.01820828385172, 72.38589449872961]}}, {"type": "Feature", "properties": {"norad_id": 35890, "name": "COSMOS 2251 DEB", "group": "cosmos-2251-debris", "lat": 68.2448735067749, "lon": -7.892298382110282, "alt_km": 715.1863841090517, "timestamp": "2025-12-25T11:37:44.836268+00:00", "meta": {"OBJECT_NAME": "COSMOS 2251 DEB", "OBJECT_ID": "1993-036AUD", "EPOCH": "2025-12-21T00:05:00.914784", "MEAN_MOTION": 14.57585084, "ECCENTRICITY": 0.00541447, "INCLINATION": 73.9362, "RA_OF_ASC_NODE": 226.8978, "ARG_OF_PERICENTER": 350.2956, "MEAN_ANOMALY": 9.7156, "EPHEMERIS_TYPE": 0, "CLASSIFICATION_TYPE": "U", "NORAD_CAT_ID": 35890, "ELEMENT_SET_NO": 999, "REV_AT_EPOCH": 65271, "BSTAR": 0.0010880234, "MEAN_MOTION_DOT": 5.027e-05, "MEAN_MOTION_DDOT": 0}, "tle": {"line1": "1 35890U 93036AUD 25355.00348281  .00005027  00000+0  10880-2 0  9994", "line2": "2 35890  73.9362 226.8978 0054144 350.2956   9.7156 14.57585084652713"}}, "geometry": {"type": "Point", "coordinates": [-7.892298382110282, 68.2448735067749]}}]}